OBJECT_NAME,OBJECT_ID,EPOCH,MEAN_MOTION,ECCENTRICITY,INCLINATION,RA_OF_ASC_NODE,ARG_OF_PERICENTER,MEAN_ANOMALY,EPHEMERIS_TYPE,CLASSIFICATION_TYPE,NORAD_CAT_ID,ELEMENT_SET_NO,REV_AT_EPOCH,BSTAR,MEAN_MOTION_DOT,MEAN_MOTION_DDOT
GEOSCAN-EDELVEIS (RS20S),2022-096R,2024-01-20T17:56:19.879584,15.80030476,.0004687,97.3903,299.5847,75.5886,284.5901,0,U,53385,999,8153,.16505E-2,.316387E-2,0
CAS-5A (FO-118),2022-167C,2024-01-20T18:22:18.720480,15.21512874,.0011342,97.5838,163.3293,306.3555,53.6632,0,U,54684,999,6167,.99324E-3,.22372E-3,0
STRATOSAT-TK 1 (RS52S),2023-091B,2024-01-20T18:20:22.719840,15.07586286,.0015542,97.6365,74.6376,267.2862,92.6587,0,U,57167,999,3116,.10068E-2,.15316E-3,0
UMKA 1 (RS40S),2023-091G,2024-01-20T19:29:22.834176,15.05487365,.0015874,97.6374,74.4200,266.9343,93.0067,0,U,57172,999,3115,.47913E-3,.6846E-4,0
CUBESX-HSE 3 (RS42S),2023-091N,2024-01-20T19:01:34.436352,15.06043693,.0016552,97.6405,74.5460,261.1074,98.8279,0,U,57178,999,3115,.59436E-3,.8641E-4,0
MONITOR-4 (RS57S),2023-091S,2024-01-20T19:28:53.001984,15.05788994,.0016957,97.6398,74.4900,262.2438,97.6864,0,U,57182,999,3115,.59491E-3,.8591E-4,0
MONITOR-2 (RS39S),2023-091U,2024-01-20T19:14:43.585440,15.05893986,.001292,97.6403,74.6685,254.7810,105.1988,0,U,57184,999,3116,.36173E-3,.5205E-4,0
SVYATOBOR 1 (RS60S),2023-091X,2024-01-20T19:19:10.158816,15.06715526,.0012628,97.6405,74.8211,252.4339,107.5509,0,U,57187,999,3117,.52687E-3,.7782E-4,0
VIZARD-METEO (RS38S),2023-091Z,2024-01-20T19:11:12.618240,15.07523759,.001164,97.6396,74.9618,250.2726,109.7246,0,U,57189,999,3118,.62081E-3,.9385E-4,0
NANOZOND 1 (RS49S),2023-091AA,2024-01-20T18:43:45.206112,15.08744356,.0010481,97.6363,75.0691,256.8503,103.1556,0,U,57190,999,3119,.78606E-3,.12304E-3,0
POLYTECH-UNIVERSE 3 (RS46S),2023-091AB,2024-01-20T19:05:38.718528,15.05738067,.0018483,97.6367,74.4367,273.9876,85.9238,0,U,57191,999,3115,.38206E-3,.5488E-4,0
UTMN 2 (RS27S),2023-091AP,2024-01-20T19:41:54.935808,15.07256135,.0012268,97.6395,74.9322,251.0903,108.8995,0,U,57203,999,3118,.63532E-3,.9538E-4,0
ARCCUBE 1 (RS25S),2023-091AR,2024-01-20T18:17:49.307136,15.09156045,.0010833,97.6346,75.0447,259.3192,100.6817,0,U,57205,999,3119,.98235E-3,.15575E-3,0
KUZGTU 1 (RS47S),2023-091AV,2024-01-20T19:00:43.792128,15.05989616,.0016435,97.6381,74.4809,262.5419,97.3940,0,U,57217,999,3115,.56351E-3,.8176E-4,0
HADES-D (SO-121),2023-174CY,2024-01-20T04:19:16.616352,15.16568502,.0015496,97.4746,96.9871,33.7666,326.4550,0,U,58567,999,1111,.1638E-2,.32114E-3,0
